ORBCOMM-X               
1 21576U 91050C   24120.93970277  .00000631  00000+0  20371-3 0  9994
2 21576  98.3919 188.9369 0003651  15.7082 344.4221 14.42472656722523
ORBCOMM FM01            
1 23545U 95017A   24121.43160577  .00005521  00000+0  74171-3 0  9999
2 23545  69.9692  15.1619 0008597 236.8300 123.2025 14.79794631551586
ORBCOMM FM02            
1 23546U 95017B   24120.91687983  .00006050  00000+0  81970-3 0  9990
2 23546  69.9708  35.8289 0010354 231.9344 128.0872 14.79368462550801
ORBCOMM FM08            
1 25112U 97084A   24120.86950021  .00001861  00000+0  59929-3 0  9991
2 25112  45.0127 186.9118 0008558 308.9232  51.0855 14.42471247381629
ORBCOMM FM10            
1 25113U 97084B   24120.87577340  .00001617  00000+0  52735-3 0  9999
2 25113  45.0138 188.7288 0006894 282.4872  77.5207 14.42384655556777
ORBCOMM FM11            
1 25114U 97084C   24120.89358918  .00001659  00000+0  54113-3 0  9998
2 25114  45.0122 188.7034 0007642 283.7835  76.2164 14.42267616381776
ORBCOMM FM12            
1 25115U 97084D   24121.19948948  .00001555  00000+0  51033-3 0  9994
2 25115  45.0130 186.9363 0006669 284.1050  75.9058 14.42227557381827
ORBCOMM FM09            
1 25116U 97084E   24121.48762944  .00001577  00000+0  51730-3 0  9995
2 25116  45.0137 186.2444 0007906 275.8494  84.1455 14.42193468381862
